OBJECT_NAME,OBJECT_ID,EPOCH,MEAN_MOTION,ECCENTRICITY,INCLINATION,RA_OF_ASC_NODE,ARG_OF_PERICENTER,MEAN_ANOMALY,EPHEMERIS_TYPE,CLASSIFICATION_TYPE,NORAD_CAT_ID,ELEMENT_SET_NO,REV_AT_EPOCH,BSTAR,MEAN_MOTION_DOT,MEAN_MOTION_DDOT
ASNARO-2,2018-007A,2026-05-16T18:26:23.800992,15.22434727,.00017432,97.3979,144.1843,93.5281,266.6155,0,U,43152,999,46263,.35954559E-3,.8248E-4,0
JILIN-1 07,2018-008E,2026-05-16T23:40:25.616640,15.34170200,.00090735,97.1784,157.7576,157.8823,202.2813,0,U,43159,999,46021,.21592099E-3,.7073E-4,0
JILIN-1 08,2018-008F,2026-05-16T23:13:18.955200,15.33283016,.00064278,97.1815,157.0859,167.6508,192.4894,0,U,43160,999,46016,.19682468E-3,.6257E-4,0
LEMUR-2-KADI,2018-014E,2026-05-16T21:50:46.546944,15.87168695,.00051046,97.4476,66.4674,109.4590,250.7233,0,U,43184,999,45611,.14020239E-2,.378219E-2,0
S-NET D,2018-014G,2026-05-16T23:42:53.627616,15.16354078,.00098059,97.5391,41.9777,120.4207,239.7996,0,U,43186,999,45403,.17354971E-3,.3302E-4,0
S-NET B,2018-014H,2026-05-16T20:48:27.440928,15.16323708,.00105246,97.5395,41.8429,117.1926,243.0381,0,U,43187,999,45401,.18652285E-3,.3552E-4,0
S-NET A,2018-014J,2026-05-16T23:41:30.275808,15.16361211,.00103769,97.5407,42.1654,117.3049,242.9242,0,U,43188,999,45403,.17563713E-3,.3344E-4,0
S-NET C,2018-014K,2026-05-16T20:53:47.897664,15.16314976,.00118778,97.5423,42.1194,112.0611,248.1885,0,U,43189,999,45256,.19177428E-3,.3654E-4,0
PAZ,2018-020A,2026-05-16T14:55:37.159968,15.19158357,.00017234,97.4457,144.4562,87.6311,272.5121,0,U,43215,999,45621,.57963354E-4,.1151E-4,0
GOES 17,2018-022A,2026-05-16T22:18:38.721312,1.00270523,.00004376,0.8588,86.1276,321.8581,71.8280,0,U,43226,999,3011,0,-.173E-5,0
LKW-4,2018-025A,2026-05-16T22:10:54.106176,15.59761024,.000298,97.6326,305.4155,75.0451,285.1135,0,U,43236,999,45515,.39774678E-3,.31801E-3,0
ZHUHAI-1 OVS-02,2018-040B,2026-05-16T23:51:21.874752,15.24578421,.00043973,97.0403,156.0814,39.7131,320.4429,0,U,43440,999,44796,.24200899E-3,.5899E-4,0
ZHUHAI-1 OHS-02,2018-040C,2026-05-16T23:54:29.994336,15.25394315,.00087348,97.0389,162.9920,355.0383,5.0768,0,U,43441,999,10952,.23744009E-3,.5934E-4,0
GAOFEN-6,2018-048A,2026-05-16T23:12:59.478912,14.76591789,.00104995,97.7780,200.7923,277.8087,82.1931,0,U,43484,999,42878,.57547639E-4,.353E-5,0
LUOJIA-1 01,2018-048B,2026-05-16T22:56:28.472640,14.87154189,.00080729,97.8108,215.6470,216.8609,143.2053,0,U,43485,999,42957,.93348941E-4,.785E-5,0
PAKTES 1A,2018-056A,2026-05-16T21:33:37.327680,14.98913931,.00214949,98.1217,292.0605,211.2833,148.7111,0,U,43529,999,42723,.15178019E-3,.1777E-4,0
PRSS-1,2018-056B,2026-05-16T22:16:50.667744,14.81932993,.00018176,97.7837,205.6623,91.2615,268.8806,0,U,43530,999,42380,.8254703E-5,.14E-6,0
HAIYANG-1C,2018-068A,2026-05-16T23:44:58.168032,14.34168486,.00107922,98.5204,209.7464,180.6334,179.4839,0,U,43609,999,40261,.45514032E-4,.84E-6,0
SSTL S1-4,2018-071A,2026-05-16T22:09:01.551168,14.96172330,.00011798,97.5073,9.8313,73.0252,287.1099,0,U,43618,999,41826,.76961632E-4,.812E-5,0
HAIYANG-2B,2018-081A,2026-05-16T23:18:44.943264,13.79307059,.00015834,99.3291,146.1978,48.3414,311.7873,0,U,43655,999,38062,.2376783E-3,.2E-5,0
CFOSAT,2018-083A,2026-05-16T22:44:36.681792,15.16494368,.00016686,97.3608,142.3984,62.4096,297.7307,0,U,43662,999,41770,.12626679E-3,.2394E-4,0
TEN-KOH,2018-084G,2026-05-16T18:20:13.620192,15.02782891,.00086559,98.0754,327.8077,218.8382,141.2221,0,U,43677,999,41144,.7108852E-4,.885E-5,0
DIWATA-2B,2018-084H,2026-05-16T22:59:57.187392,15.00288916,.00117952,98.1105,331.8264,278.7492,81.2395,0,U,43678,999,41153,.16287751E-3,.1977E-4,0
STARS-AO,2018-084J,2026-05-16T19:19:29.770752,15.16678632,.00006126,98.0531,348.8467,274.3457,85.7704,0,U,43679,999,41271,.25984189E-3,.5013E-4,0
AUTCUBE 2,2018-084K,2026-05-16T19:40:05.213856,15.09859023,.00099426,98.0733,341.3329,142.0592,218.1338,0,U,43681,999,41219,.15388392E-3,.2421E-4,0
METOP-C,2018-087A,2026-05-16T22:57:40.261536,14.21502888,.00003873,98.6660,197.1280,140.2622,219.8584,0,U,43689,999,39039,.47956657E-4,.62E-6,0
ES'HAIL 2,2018-090A,2026-05-16T19:40:00.655392,1.00268495,.00011884,0.0174,298.2220,142.8260,114.3061,0,U,43700,999,2736,0,.153E-5,0
MOHAMMED VI-B,2018-095A,2026-05-16T22:45:09.780768,14.77071567,.00012765,97.9569,209.7013,79.9444,280.1911,0,U,43717,999,40357,.18230935E-4,.78E-6,0
HYSIS,2018-096A,2026-05-16T22:44:59.766144,14.78624193,.00009383,97.9857,203.9377,110.2903,249.8409,0,U,43719,999,40280,.1275734E-3,.882E-5,0
