ASNARO-2                
1 43152U 18007A   26136.76833103  .00008248  00000+0  35955-3 0  9991
2 43152  97.3979 144.1843 0001743  93.5281 266.6155 15.22434727462638
JILIN-1 07              
1 43159U 18008E   26136.98640760  .00007073  00000+0  21592-3 0  9995
2 43159  97.1784 157.7576 0009073 157.8823 202.2813 15.34170200460215
JILIN-1 08              
1 43160U 18008F   26136.96758050  .00006257  00000+0  19682-3 0  9997
2 43160  97.1815 157.0859 0006427 167.6508 192.4894 15.33283016460160
LEMUR-2-KADI            
1 43184U 18014E   26136.91026096  .00378219  00000+0  14020-2 0  9993
2 43184  97.4476  66.4674 0005104 109.4590 250.7233 15.87168695456115
S-NET D                 
1 43186U 18014G   26136.98812069  .00003302  00000+0  17355-3 0  9998
2 43186  97.5391  41.9777 0009805 120.4207 239.7996 15.16354078454032
S-NET B                 
1 43187U 18014H   26136.86698427  .00003552  00000+0  18652-3 0  9994
2 43187  97.5395  41.8429 0010524 117.1926 243.0381 15.16323708454011
S-NET A                 
1 43188U 18014J   26136.98715597  .00003344  00000+0  17564-3 0  9996
2 43188  97.5407  42.1654 0010376 117.3049 242.9242 15.16361211454030
S-NET C                 
1 43189U 18014K   26136.87069326  .00003654  00000+0  19177-3 0  9993
2 43189  97.5423  42.1194 0011877 112.0611 248.1885 15.16314976452565
PAZ                     
1 43215U 18020A   26136.62195787  .00001151  00000+0  57963-4 0  9990
2 43215  97.4457 144.4562 0001723  87.6311 272.5121 15.19158357456211
GOES 17                 
1 43226U 18022A   26136.92961483 -.00000173  00000+0  00000+0 0  9990
2 43226   0.8588  86.1276 0000437 321.8581  71.8280  1.00270523 30111
LKW-4                   
1 43236U 18025A   26136.92423734  .00031801  00000+0  39775-3 0  9992
2 43236  97.6326 305.4155 0002980  75.0451 285.1135 15.59761024455152
ZHUHAI-1 OVS-02         
1 43440U 18040B   26136.99400318  .00005899  00000+0  24201-3 0  9992
2 43440  97.0403 156.0814 0004397  39.7131 320.4429 15.24578421447965
ZHUHAI-1 OHS-02         
1 43441U 18040C   26136.99618049  .00005934  00000+0  23744-3 0  9996
2 43441  97.0389 162.9920 0008734 355.0383   5.0768 15.25394315109523
GAOFEN-6                
1 43484U 18048A   26136.96735508  .00000353  00000+0  57548-4 0  9998
2 43484  97.7780 200.7923 0010499 277.8087  82.1931 14.76591789428788
LUOJIA-1 01             
1 43485U 18048B   26136.95588510  .00000785  00000+0  93349-4 0  9995
2 43485  97.8108 215.6470 0008072 216.8609 143.2053 14.87154189429576
PAKTES 1A               
1 43529U 18056A   26136.89834870  .00001777  00000+0  15178-3 0  9994
2 43529  98.1217 292.0605 0021494 211.2833 148.7111 14.98913931427236
PRSS-1                  
1 43530U 18056B   26136.92836421  .00000014  00000+0  82547-5 0  9993
2 43530  97.7837 205.6623 0001817  91.2615 268.8806 14.81932993423807
HAIYANG-1C              
1 43609U 18068A   26136.98956213  .00000084  00000+0  45514-4 0  9990
2 43609  98.5204 209.7464 0010792 180.6334 179.4839 14.34168486402617
SSTL S1-4               
1 43618U 18071A   26136.92293462  .00000812  00000+0  76962-4 0  9998
2 43618  97.5073   9.8313 0001179  73.0252 287.1099 14.96172330418269
HAIYANG-2B              
1 43655U 18081A   26136.97135351  .00000200  00000+0  23768-3 0  9993
2 43655  99.3291 146.1978 0001583  48.3414 311.7873 13.79307059380628
CFOSAT                  
1 43662U 18083A   26136.94764678  .00002394  00000+0  12627-3 0  9998
2 43662  97.3608 142.3984 0001668  62.4096 297.7307 15.16494368417706
TEN-KOH                 
1 43677U 18084G   26136.76404653  .00000885  00000+0  71089-4 0  9990
2 43677  98.0754 327.8077 0008655 218.8382 141.2221 15.02782891411442
DIWATA-2B               
1 43678U 18084H   26136.95830078  .00001977  00000+0  16288-3 0  9998
2 43678  98.1105 331.8264 0011795 278.7492  81.2395 15.00288916411535
STARS-AO                
1 43679U 18084J   26136.80520568  .00005013  00000+0  25984-3 0  9991
2 43679  98.0531 348.8467 0000612 274.3457  85.7704 15.16678632412719
AUTCUBE 2               
1 43681U 18084K   26136.81950479  .00002421  00000+0  15388-3 0  9990
2 43681  98.0733 341.3329 0009942 142.0592 218.1338 15.09859023412191
METOP-C                 
1 43689U 18087A   26136.95671599  .00000062  00000+0  47957-4 0  9996
2 43689  98.6660 197.1280 0000387 140.2622 219.8584 14.21502888390390
ES'HAIL 2               
1 43700U 18090A   26136.81945203  .00000153  00000+0  00000+0 0  9999
2 43700   0.0174 298.2220 0001188 142.8260 114.3061  1.00268495 27363
MOHAMMED VI-B           
1 43717U 18095A   26136.94802987  .00000078  00000+0  18231-4 0  9993
2 43717  97.9569 209.7013 0001276  79.9444 280.1911 14.77071567403570
HYSIS                   
1 43719U 18096A   26136.94791396  .00000882  00000+0  12757-3 0  9996
2 43719  97.9857 203.9377 0000938 110.2903 249.8409 14.78624193402803
